{"type": "FeatureCollection", "features": [ {"type": "Feature", "properties": {"norad_id": 66678, "name": "TRANSPORTER-15N", "group": "last-30-days", "lat": -40.67892118042747, "lon": -113.81074979127165, "alt_km": 525.0018266711086, "timestamp": "2025-12-27T03:58:42.930993+00:00", "meta": {"OBJECT_NAME": "TRANSPORTER-15N", "OBJECT_ID": "2025-276N", "EPOCH": "2025-12-26T19:05:31.098048", "MEAN_MOTION": 15.16979582, "ECCENTRICITY": 0.0004946, "INCLINATION": 97.4378, "RA_OF_ASC_NODE": 72.2729, "ARG_OF_PERICENTER": 45.2106, "MEAN_ANOMALY": 314.9528, "EPHEMERIS_TYPE": 0, "CLASSIFICATION_TYPE": "U", "NORAD_CAT_ID": 66678, "ELEMENT_SET_NO": 999, "REV_AT_EPOCH": 425, "BSTAR": -0.00028267, "MEAN_MOTION_DOT": -5.641e-05, "MEAN_MOTION_DDOT": 0}, "tle": {"line1": "1 66678U 25276N   25360.79549882 -.00005641  00000+0 -28267-3 0  9998", "line2": "2 66678  97.4378  72.2729 0004946  45.2106 314.9528 15.16979582  4259"}}, "geometry": {"type": "Point", "coordinates": [-113.81074979127165, -40.67892118042747]}}, {"type": "Feature", "properties": {"norad_id": 66679, "name": "TRANSPORTER-15P", "group": "last-30-days", "lat": -30.538158421230712, "lon": -111.7869725066535, "alt_km": 518.8999838696836, "timestamp": "2025-12-27T03:58:42.931002+00:00", "meta": {"OBJECT_NAME": "TRANSPORTER-15P", "OBJECT_ID": "2025-276P", "EPOCH": "2025-12-26T17:33:06.741792", "MEAN_MOTION": 15.16725586, "ECCENTRICITY": 0.0004756, "INCLINATION": 97.4359, "RA_OF_ASC_NODE": 72.206, "ARG_OF_PERICENTER": 240.1404, "MEAN_ANOMALY": 119.9357, "EPHEMERIS_TYPE": 0, "CLASSIFICATION_TYPE": "U", "NORAD_CAT_ID": 66679, "ELEMENT_SET_NO": 999, "REV_AT_EPOCH": 424, "BSTAR": 0.00020466, "MEAN_MOTION_DOT": 3.947e-05, "MEAN_MOTION_DDOT": 0}, "tle": {"line1": "1 66679U 25276P   25360.73132803  .00003947  00000+0  20466-3 0  9992", "line2": "2 66679  97.4359  72.2060 0004756 240.1404 119.9357 15.16725586  4248"}}, "geometry": {"type": "Point", "coordinates": [-111.7869725066535, -30.538158421230712]}}, {"type": "Feature", "properties": {"norad_id": 66680, "name": "TRANSPORTER-15Q", "group": "last-30-days", "lat": -40.65915192768174, "lon": -113.79247295640936, "alt_km": 518.4787380822809, "timestamp": "2025-12-27T03:58:42.931011+00:00", "meta": {"OBJECT_NAME": "TRANSPORTER-15Q", "OBJECT_ID": "2025-276Q", "EPOCH": "2025-12-26T19:05:28.168224", "MEAN_MOTION": 15.16889533, "ECCENTRICITY": 0.0004903, "INCLINATION": 97.4406, "RA_OF_ASC_NODE": 72.289, "ARG_OF_PERICENTER": 229.0566, "MEAN_ANOMALY": 131.0243, "EPHEMERIS_TYPE": 0, "CLASSIFICATION_TYPE": "U", "NORAD_CAT_ID": 66680, "ELEMENT_SET_NO": 999, "REV_AT_EPOCH": 425, "BSTAR": 0.00043319, "MEAN_MOTION_DOT": 8.472e-05, "MEAN_MOTION_DDOT": 0}, "tle": {"line1": "1 66680U 25276Q   25360.79546491  .00008472  00000+0  43319-3 0  9992", "line2": "2 66680  97.4406  72.2890 0004903 229.0566 131.0243 15.16889533  4256"}}, "geometry": {"type": "Point", "coordinates": [-113.79247295640936, -40.65915192768174]}}, {"type": "Feature", "properties": {"norad_id": 66681, "name": "TRANSPORTER-15R", "group": "last-30-days", "lat": -76.61259742081911, "lon": -140.62526332761394, "alt_km": 517.0636420107958, "timestamp": "2025-12-27T03:58:42.931021+00:00", "meta": {"OBJECT_NAME": "TRANSPORTER-15R", "OBJECT_ID": "2025-276R", "EPOCH": "2025-12-26T17:20:47.334048", "MEAN_MOTION": 15.17585797, "ECCENTRICITY": 0.0004897, "INCLINATION": 97.4329, "RA_OF_ASC_NODE": 72.2065, "ARG_OF_PERICENTER": 258.9318, "MEAN_ANOMALY": 101.1365, "EPHEMERIS_TYPE": 0, "CLASSIFICATION_TYPE": "U", "NORAD_CAT_ID": 66681, "ELEMENT_SET_NO": 999, "REV_AT_EPOCH": 424, "BSTAR": 0.00088621, "MEAN_MOTION_DOT": 0.00017774, "MEAN_MOTION_DDOT": 0}, "tle": {"line1": "1 66681U 25276R   25360.72277007  .00017774  00000+0  88621-3 0  9990", "line2": "2 66681  97.4329  72.2065 0004897 258.9318 101.1365 15.17585797  4241"}}, "geometry": {"type": "Point", "coordinates": [-140.62526332761394, -76.61259742081911]}}, {"type": "Feature", "properties": {"norad_id": 66682, "name": "TRANSPORTER-15S", "group": "last-30-days", "lat": -34.024074089662136, "lon": -112.3961722020896, "alt_km": 534.7456895198939, "timestamp": "2025-12-27T03:58:42.931030+00:00", "meta": {"OBJECT_NAME": "TRANSPORTER-15S", "OBJECT_ID": "2025-276S", "EPOCH": "2025-12-26T17:30:47.374272", "MEAN_MOTION": 15.13475962, "ECCENTRICITY": 0.0015665, "INCLINATION": 97.4369, "RA_OF_ASC_NODE": 72.2378, "ARG_OF_PERICENTER": 122.6858, "MEAN_ANOMALY": 237.5887, "EPHEMERIS_TYPE": 0, "CLASSIFICATION_TYPE": "U", "NORAD_CAT_ID": 66682, "ELEMENT_SET_NO": 999, "REV_AT_EPOCH": 424, "BSTAR": -0.047535, "MEAN_MOTION_DOT": -0.00789731, "MEAN_MOTION_DDOT": 0}, "tle": {"line1": "1 66682U 25276S   25360.72971498 -.00789731  00000+0 -47535-1 0  9994", "line2": "2 66682  97.4369  72.2378 0015665 122.6858 237.5887 15.13475962  4245"}}, "geometry": {"type": "Point", "coordinates": [-112.3961722020896, -34.024074089662136]}}, {"type": "Feature", "properties": {"norad_id": 66683, "name": "TRANSPORTER-15T", "group": "last-30-days", "lat": -54.033505463238946, "lon": -117.70940172813248, "alt_km": 518.3930493477719, "timestamp": "2025-12-27T03:58:42.931039+00:00", "meta": {"OBJECT_NAME": "TRANSPORTER-15T", "OBJECT_ID": "2025-276T", "EPOCH": "2025-12-26T19:01:56.284320", "MEAN_MOTION": 15.17075615, "ECCENTRICITY": 0.000492, "INCLINATION": 97.4444, "RA_OF_ASC_NODE": 72.3054, "ARG_OF_PERICENTER": 224.3504, "MEAN_ANOMALY": 135.7336, "EPHEMERIS_TYPE": 0, "CLASSIFICATION_TYPE": "U", "NORAD_CAT_ID": 66683, "ELEMENT_SET_NO": 999, "REV_AT_EPOCH": 425, "BSTAR": 0.00046537, "MEAN_MOTION_DOT": 9.156e-05, "MEAN_MOTION_DDOT": 0}, "tle": {"line1": "1 66683U 25276T   25360.79301255  .00009156  00000+0  46537-3 0  9997", "line2": "2 66683  97.4444  72.3054 0004920 224.3504 135.7336 15.17075615  4256"}}, "geometry": {"type": "Point", "coordinates": [-117.70940172813248, -54.033505463238946]}}, {"type": "Feature", "properties": {"norad_id": 66684, "name": "TRANSPORTER-15U", "group": "last-30-days", "lat": -74.87789807085255, "lon": -136.25850832137618, "alt_km": 518.3414479293278, "timestamp": "2025-12-27T03:58:42.931075+00:00", "meta": {"OBJECT_NAME": "TRANSPORTER-15U", "OBJECT_ID": "2025-276U", "EPOCH": "2025-12-26T17:21:15.981696", "MEAN_MOTION": 15.17414455, "ECCENTRICITY": 0.0004661, "INCLINATION": 97.4468, "RA_OF_ASC_NODE": 72.2546, "ARG_OF_PERICENTER": 222.9491, "MEAN_ANOMALY": 137.1379, "EPHEMERIS_TYPE": 0, "CLASSIFICATION_TYPE": "U", "NORAD_CAT_ID": 66684, "ELEMENT_SET_NO": 999, "REV_AT_EPOCH": 424, "BSTAR": 0.00061081, "MEAN_MOTION_DOT": 0.0001216, "MEAN_MOTION_DDOT": 0}, "tle": {"line1": "1 66684U 25276U   25360.72310164  .00012160  00000+0  61081-3 0  9990", "line2": "2 66684  97.4468  72.2546 0004661 222.9491 137.1379 15.17414455  4240"}}, "geometry": {"type": "Point", "coordinates": [-136.25850832137618, -74.87789807085255]}}, {"type": "Feature", "properties": {"norad_id": 66685, "name": "TRANSPORTER-15V", "group": "last-30-days", "lat": -81.11610733297402, "lon": -164.06527889481814, "alt_km": 519.864539555675, "timestamp": "2025-12-27T03:58:42.931084+00:00", "meta": {"OBJECT_NAME": "TRANSPORTER-15V", "OBJECT_ID": "2025-276V", "EPOCH": "2025-12-26T03:04:19.749504", "MEAN_MOTION": 15.17397324, "ECCENTRICITY": 0.00032136, "INCLINATION": 97.4413, "RA_OF_ASC_NODE": 71.6542, "ARG_OF_PERICENTER": 231.2605, "MEAN_ANOMALY": 128.8342, "EPHEMERIS_TYPE": 0, "CLASSIFICATION_TYPE": "U", "NORAD_CAT_ID": 66685, "ELEMENT_SET_NO": 999, "REV_AT_EPOCH": 415, "BSTAR": -0.0041618973, "MEAN_MOTION_DOT": -0.00082255, "MEAN_MOTION_DDOT": 0}, "tle": {"line1": "1 66685U 25276V   25360.12800636 -.00082255  00000+0 -41619-2 0  9991", "line2": "2 66685  97.4413  71.6542 0003213 231.2605 128.8342 15.17397324  4154"}}, "geometry": {"type": "Point", "coordinates": [-164.06527889481814, -81.11610733297402]}}, {"type": "Feature", "properties": {"norad_id": 66686, "name": "TRANSPORTER-15W", "group": "last-30-days", "lat": -58.14773423711945, "lon": -119.47251646063415, "alt_km": 519.0555392375582, "timestamp": "2025-12-27T03:58:42.931093+00:00", "meta": {"OBJECT_NAME": "TRANSPORTER-15W", "OBJECT_ID": "2025-276W", "EPOCH": "2025-12-26T19:00:48.945888", "MEAN_MOTION": 15.17072202, "ECCENTRICITY": 0.000399, "INCLINATION": 97.4456, "RA_OF_ASC_NODE": 72.3118, "ARG_OF_PERICENTER": 240.7564, "MEAN_ANOMALY": 119.3271, "EPHEMERIS_TYPE": 0, "CLASSIFICATION_TYPE": "U", "NORAD_CAT_ID": 66686, "ELEMENT_SET_NO": 999, "REV_AT_EPOCH": 425, "BSTAR": 0.00063647, "MEAN_MOTION_DOT": 0.0001255, "MEAN_MOTION_DDOT": 0}, "tle": {"line1": "1 66686U 25276W   25360.79223317  .00012550  00000+0  63647-3 0  9995", "line2": "2 66686  97.4456  72.3118 0003990 240.7564 119.3271 15.17072202  4252"}}, "geometry": {"type": "Point", "coordinates": [-119.47251646063415, -58.14773423711945]}}, {"type": "Feature", "properties": {"norad_id": 66687, "name": "TRANSPORTER-15X", "group": "last-30-days", "lat": -25.2118092834842, "lon": -110.89092241308268, "alt_km": 526.5622622047076, "timestamp": "2025-12-27T03:58:42.931107+00:00", "meta": {"OBJECT_NAME": "TRANSPORTER-15X", "OBJECT_ID": "2025-276X", "EPOCH": "2025-12-26T19:09:36.448128", "MEAN_MOTION": 15.16807266, "ECCENTRICITY": 0.0008102, "INCLINATION": 97.4384, "RA_OF_ASC_NODE": 72.2752, "ARG_OF_PERICENTER": 41.4441, "MEAN_ANOMALY": 318.7406, "EPHEMERIS_TYPE": 0, "CLASSIFICATION_TYPE": "U", "NORAD_CAT_ID": 66687, "ELEMENT_SET_NO": 999, "REV_AT_EPOCH": 425, "BSTAR": 0.00066581, "MEAN_MOTION_DOT": 0.00013041, "MEAN_MOTION_DDOT": 0}, "tle": {"line1": "1 66687U 25276X   25360.79833852  .00013041  00000+0  66581-3 0  9993", "line2": "2 66687  97.4384  72.2752 0008102  41.4441 318.7406 15.16807266  4256"}}, "geometry": {"type": "Point", "coordinates": [-110.89092241308268, -25.2118092834842]}}]}